CCSDS_OMM_VERS = 2.0
CREATION_DATE  = 
ORIGINATOR     = 

OBJECT_NAME    = TRANSPORTER-15 CN
OBJECT_ID      = 2025-276CN
CENTER_NAME    = EARTH
REF_FRAME      = TEME
TIME_SYSTEM    = UTC
MEAN_ELEMENT_THEORY = SGP/SGP4

EPOCH          = 2025-12-21T10:24:54.813600
MEAN_MOTION    = 15.18016899
ECCENTRICITY   = .0001938
INCLINATION    = 97.4446
RA_OF_ASC_NODE = 67.0774
ARG_OF_PERICENTER = 156.9910
MEAN_ANOMALY   = 203.1411

EPHEMERIS_TYPE = 0
CLASSIFICATION_TYPE = U
NORAD_CAT_ID   = 66750
ELEMENT_SET_NO = 999
REV_AT_EPOCH   = 344
BSTAR          = .36426E-3
MEAN_MOTION_DOT = .7345E-4
MEAN_MOTION_DDOT = 0

CCSDS_OMM_VERS = 2.0
CREATION_DATE  = 
ORIGINATOR     = 

OBJECT_NAME    = ICEYE-X58
OBJECT_ID      = 2025-276CP
CENTER_NAME    = EARTH
REF_FRAME      = TEME
TIME_SYSTEM    = UTC
MEAN_ELEMENT_THEORY = SGP/SGP4

EPOCH          = 2025-12-21T10:29:33.494208
MEAN_MOTION    = 15.17788147
ECCENTRICITY   = .0002236
INCLINATION    = 97.4420
RA_OF_ASC_NODE = 67.0668
ARG_OF_PERICENTER = 213.3150
MEAN_ANOMALY   = 146.7943

EPHEMERIS_TYPE = 0
CLASSIFICATION_TYPE = U
NORAD_CAT_ID   = 66751
ELEMENT_SET_NO = 999
REV_AT_EPOCH   = 344
BSTAR          = .2957E-3
MEAN_MOTION_DOT = .591E-4
MEAN_MOTION_DDOT = 0

CCSDS_OMM_VERS = 2.0
CREATION_DATE  = 
ORIGINATOR     = 

OBJECT_NAME    = ICEYE-X59
OBJECT_ID      = 2025-276CQ
CENTER_NAME    = EARTH
REF_FRAME      = TEME
TIME_SYSTEM    = UTC
MEAN_ELEMENT_THEORY = SGP/SGP4

EPOCH          = 2025-12-21T12:08:37.059072
MEAN_MOTION    = 15.17589100
ECCENTRICITY   = .0001807
INCLINATION    = 97.4413
RA_OF_ASC_NODE = 67.1278
ARG_OF_PERICENTER = 245.2236
MEAN_ANOMALY   = 114.8809

EPHEMERIS_TYPE = 0
CLASSIFICATION_TYPE = U
NORAD_CAT_ID   = 66752
ELEMENT_SET_NO = 999
REV_AT_EPOCH   = 345
BSTAR          = .23663E-3
MEAN_MOTION_DOT = .4688E-4
MEAN_MOTION_DDOT = 0

CCSDS_OMM_VERS = 2.0
CREATION_DATE  = 
ORIGINATOR     = 

OBJECT_NAME    = ICEYE-X60
OBJECT_ID      = 2025-276CR
CENTER_NAME    = EARTH
REF_FRAME      = TEME
TIME_SYSTEM    = UTC
MEAN_ELEMENT_THEORY = SGP/SGP4

EPOCH          = 2025-12-21T10:38:46.247712
MEAN_MOTION    = 15.17364193
ECCENTRICITY   = .0001174
INCLINATION    = 97.4415
RA_OF_ASC_NODE = 67.0543
ARG_OF_PERICENTER = 286.8277
MEAN_ANOMALY   = 73.2827

EPHEMERIS_TYPE = 0
CLASSIFICATION_TYPE = U
NORAD_CAT_ID   = 66753
ELEMENT_SET_NO = 999
REV_AT_EPOCH   = 344
BSTAR          = .23547E-3
MEAN_MOTION_DOT = .4635E-4
MEAN_MOTION_DDOT = 0

CCSDS_OMM_VERS = 2.0
CREATION_DATE  = 
ORIGINATOR     = 

OBJECT_NAME    = ICEYE-X61
OBJECT_ID      = 2025-276CS
CENTER_NAME    = EARTH
REF_FRAME      = TEME
TIME_SYSTEM    = UTC
MEAN_ELEMENT_THEORY = SGP/SGP4

EPOCH          = 2025-12-21T10:28:22.006848
MEAN_MOTION    = 15.17832273
ECCENTRICITY   = .0002137
INCLINATION    = 97.4413
RA_OF_ASC_NODE = 67.0631
ARG_OF_PERICENTER = 199.7655
MEAN_ANOMALY   = 160.3497

EPHEMERIS_TYPE = 0
CLASSIFICATION_TYPE = U
NORAD_CAT_ID   = 66754
ELEMENT_SET_NO = 999
REV_AT_EPOCH   = 344
BSTAR          = .25742E-3
MEAN_MOTION_DOT = .5142E-4
MEAN_MOTION_DDOT = 0

CCSDS_OMM_VERS = 2.0
CREATION_DATE  = 
ORIGINATOR     = 

OBJECT_NAME    = ICEYE-X62
OBJECT_ID      = 2025-276CT
CENTER_NAME    = EARTH
REF_FRAME      = TEME
TIME_SYSTEM    = UTC
MEAN_ELEMENT_THEORY = SGP/SGP4

EPOCH          = 2025-12-21T10:34:05.498688
MEAN_MOTION    = 15.17610917
ECCENTRICITY   = .0000688
INCLINATION    = 97.4419
RA_OF_ASC_NODE = 67.0560
ARG_OF_PERICENTER = 267.6081
MEAN_ANOMALY   = 92.5074

EPHEMERIS_TYPE = 0
CLASSIFICATION_TYPE = U
NORAD_CAT_ID   = 66755
ELEMENT_SET_NO = 999
REV_AT_EPOCH   = 344
BSTAR          = .36928E-3
MEAN_MOTION_DOT = .7361E-4
MEAN_MOTION_DDOT = 0

CCSDS_OMM_VERS = 2.0
CREATION_DATE  = 
ORIGINATOR     = 

OBJECT_NAME    = TRANSPORTER-15 CU
OBJECT_ID      = 2025-276CU
CENTER_NAME    = EARTH
REF_FRAME      = TEME
TIME_SYSTEM    = UTC
MEAN_ELEMENT_THEORY = SGP/SGP4

EPOCH          = 2025-12-21T10:26:57.841152
MEAN_MOTION    = 15.17926464
ECCENTRICITY   = .000146
INCLINATION    = 97.4421
RA_OF_ASC_NODE = 67.0679
ARG_OF_PERICENTER = 162.4633
MEAN_ANOMALY   = 197.6651

EPHEMERIS_TYPE = 0
CLASSIFICATION_TYPE = U
NORAD_CAT_ID   = 66756
ELEMENT_SET_NO = 999
REV_AT_EPOCH   = 344
BSTAR          = .38466E-3
MEAN_MOTION_DOT = .774E-4
MEAN_MOTION_DDOT = 0

CCSDS_OMM_VERS = 2.0
CREATION_DATE  = 
ORIGINATOR     = 

OBJECT_NAME    = TRANSPORTER-15 CV
OBJECT_ID      = 2025-276CV
CENTER_NAME    = EARTH
REF_FRAME      = TEME
TIME_SYSTEM    = UTC
MEAN_ELEMENT_THEORY = SGP/SGP4

EPOCH          = 2025-12-21T10:25:07.235328
MEAN_MOTION    = 15.18043990
ECCENTRICITY   = .0001571
INCLINATION    = 97.4431
RA_OF_ASC_NODE = 67.0725
ARG_OF_PERICENTER = 161.1168
MEAN_ANOMALY   = 199.0124

EPHEMERIS_TYPE = 0
CLASSIFICATION_TYPE = U
NORAD_CAT_ID   = 66757
ELEMENT_SET_NO = 999
REV_AT_EPOCH   = 344
BSTAR          = .41298E-3
MEAN_MOTION_DOT = .8344E-4
MEAN_MOTION_DDOT = 0

CCSDS_OMM_VERS = 2.0
CREATION_DATE  = 
ORIGINATOR     = 

OBJECT_NAME    = TRANSPORTER-15 CW
OBJECT_ID      = 2025-276CW
CENTER_NAME    = EARTH
REF_FRAME      = TEME
TIME_SYSTEM    = UTC
MEAN_ELEMENT_THEORY = SGP/SGP4

EPOCH          = 2025-12-21T10:24:44.194176
MEAN_MOTION    = 15.18051806
ECCENTRICITY   = .0001175
INCLINATION    = 97.4400
RA_OF_ASC_NODE = 67.0636
ARG_OF_PERICENTER = 141.4901
MEAN_ANOMALY   = 218.6417

EPHEMERIS_TYPE = 0
CLASSIFICATION_TYPE = U
NORAD_CAT_ID   = 66758
ELEMENT_SET_NO = 999
REV_AT_EPOCH   = 344
BSTAR          = .39925E-3
MEAN_MOTION_DOT = .8066E-4
MEAN_MOTION_DDOT = 0

CCSDS_OMM_VERS = 2.0
CREATION_DATE  = 
ORIGINATOR     = 

OBJECT_NAME    = TRANSPORTER-15 CX
OBJECT_ID      = 2025-276CX
CENTER_NAME    = EARTH
REF_FRAME      = TEME
TIME_SYSTEM    = UTC
MEAN_ELEMENT_THEORY = SGP/SGP4

EPOCH          = 2025-12-21T10:22:33.444192
MEAN_MOTION    = 15.18184766
ECCENTRICITY   = .0001615
INCLINATION    = 97.4389
RA_OF_ASC_NODE = 67.0613
ARG_OF_PERICENTER = 142.3527
MEAN_ANOMALY   = 217.7821

EPHEMERIS_TYPE = 0
CLASSIFICATION_TYPE = U
NORAD_CAT_ID   = 66759
ELEMENT_SET_NO = 999
REV_AT_EPOCH   = 344
BSTAR          = .38518E-3
MEAN_MOTION_DOT = .7809E-4
MEAN_MOTION_DDOT = 0

CCSDS_OMM_VERS = 2.0
CREATION_DATE  = 
ORIGINATOR     = 

OBJECT_NAME    = TRANSPORTER-15 CY
OBJECT_ID      = 2025-276CY
CENTER_NAME    = EARTH
REF_FRAME      = TEME
TIME_SYSTEM    = UTC
MEAN_ELEMENT_THEORY = SGP/SGP4

EPOCH          = 2025-12-21T10:21:59.196960
MEAN_MOTION    = 15.18168889
ECCENTRICITY   = .0001605
INCLINATION    = 97.4403
RA_OF_ASC_NODE = 67.0676
ARG_OF_PERICENTER = 115.4934
MEAN_ANOMALY   = 244.6466

EPHEMERIS_TYPE = 0
CLASSIFICATION_TYPE = U
NORAD_CAT_ID   = 66760
ELEMENT_SET_NO = 999
REV_AT_EPOCH   = 344
BSTAR          = .40918E-3
MEAN_MOTION_DOT = .8296E-4
MEAN_MOTION_DDOT = 0

CCSDS_OMM_VERS = 2.0
CREATION_DATE  = 
ORIGINATOR     = 

OBJECT_NAME    = TRANSPORTER-15 CZ
OBJECT_ID      = 2025-276CZ
CENTER_NAME    = EARTH
REF_FRAME      = TEME
TIME_SYSTEM    = UTC
MEAN_ELEMENT_THEORY = SGP/SGP4

EPOCH          = 2025-12-21T08:43:50.172096
MEAN_MOTION    = 15.18435000
ECCENTRICITY   = .0001748
INCLINATION    = 97.4396
RA_OF_ASC_NODE = 67.0046
ARG_OF_PERICENTER = 128.7268
MEAN_ANOMALY   = 231.4122

EPHEMERIS_TYPE = 0
CLASSIFICATION_TYPE = U
NORAD_CAT_ID   = 66761
ELEMENT_SET_NO = 999
REV_AT_EPOCH   = 343
BSTAR          = .78656E-3
MEAN_MOTION_DOT = .1615E-3
MEAN_MOTION_DDOT = 0

CCSDS_OMM_VERS = 2.0
CREATION_DATE  = 
ORIGINATOR     = 

OBJECT_NAME    = HYDROGNSS-1
OBJECT_ID      = 2025-276DA
CENTER_NAME    = EARTH
REF_FRAME      = TEME
TIME_SYSTEM    = UTC
MEAN_ELEMENT_THEORY = SGP/SGP4

EPOCH          = 2025-12-21T10:39:52.752384
MEAN_MOTION    = 15.17290948
ECCENTRICITY   = .0000973
INCLINATION    = 97.4416
RA_OF_ASC_NODE = 67.0542
ARG_OF_PERICENTER = 277.9626
MEAN_ANOMALY   = 82.1497

EPHEMERIS_TYPE = 0
CLASSIFICATION_TYPE = U
NORAD_CAT_ID   = 66762
ELEMENT_SET_NO = 999
REV_AT_EPOCH   = 344
BSTAR          = .3442E-3
MEAN_MOTION_DOT = .6793E-4
MEAN_MOTION_DDOT = 0

CCSDS_OMM_VERS = 2.0
CREATION_DATE  = 
ORIGINATOR     = 

OBJECT_NAME    = HYDROGNSS-2
OBJECT_ID      = 2025-276DB
CENTER_NAME    = EARTH
REF_FRAME      = TEME
TIME_SYSTEM    = UTC
MEAN_ELEMENT_THEORY = SGP/SGP4

EPOCH          = 2025-12-21T10:37:08.614848
MEAN_MOTION    = 15.17410850
ECCENTRICITY   = .000139
INCLINATION    = 97.4419
RA_OF_ASC_NODE = 67.0602
ARG_OF_PERICENTER = 249.0290
MEAN_ANOMALY   = 111.0794

EPHEMERIS_TYPE = 0
CLASSIFICATION_TYPE = U
NORAD_CAT_ID   = 66763
ELEMENT_SET_NO = 999
REV_AT_EPOCH   = 344
BSTAR          = .14848E-3
MEAN_MOTION_DOT = .2901E-4
MEAN_MOTION_DDOT = 0

CCSDS_OMM_VERS = 2.0
CREATION_DATE  = 
ORIGINATOR     = 

OBJECT_NAME    = TRANSPORTER-15 DC
OBJECT_ID      = 2025-276DC
CENTER_NAME    = EARTH
REF_FRAME      = TEME
TIME_SYSTEM    = UTC
MEAN_ELEMENT_THEORY = SGP/SGP4

EPOCH          = 2025-12-21T10:31:11.287776
MEAN_MOTION    = 15.17681114
ECCENTRICITY   = .0001967
INCLINATION    = 97.4415
RA_OF_ASC_NODE = 67.0600
ARG_OF_PERICENTER = 203.3782
MEAN_ANOMALY   = 156.7363

EPHEMERIS_TYPE = 0
CLASSIFICATION_TYPE = U
NORAD_CAT_ID   = 66764
ELEMENT_SET_NO = 999
REV_AT_EPOCH   = 344
BSTAR          = .36536E-3
MEAN_MOTION_DOT = .7296E-4
MEAN_MOTION_DDOT = 0

